STARLINK-31359          
1 58945U 24027Q   26068.85992824  .00001275  00000+0  55195-4 0  9998
2 58945  53.1579 270.3947 0001285  99.4481 260.6665 15.30181732117906
FLOCK 4G-5              
1 62663U 25009BG  26068.45638436  .00011278  00000+0  40688-3 0  9997
2 62663  97.4058 151.2478 0002094 314.5072  45.5996 15.28679529 63699
